{
  "links" : {
    "next" : "https://api.nasa.gov/neo/rest/v1/neo/browse?page=21&size=20&api_key=jqAGvNAwUIBu4fl9FSOjdm3V4F7hIglRzI6pdX9d",
    "prev" : "https://api.nasa.gov/neo/rest/v1/neo/browse?page=19&size=20&api_key=jqAGvNAwUIBu4fl9FSOjdm3V4F7hIglRzI6pdX9d",
    "self" : "https://api.nasa.gov/neo/rest/v1/neo/browse?page=20&size=20&api_key=jqAGvNAwUIBu4fl9FSOjdm3V4F7hIglRzI6pdX9d"
  },
  "page" : {
    "size" : 20,
    "total_elements" : 20750,
    "total_pages" : 1038,
    "number" : 20
  },
  "near_earth_objects" : [ {
    "links" : {
      "self" : "https://api.nasa.gov/neo/rest/v1/neo/3278321?api_key=jqAGvNAwUIBu4fl9FSOjdm3V4F7hIglRzI6pdX9d"
    },
    "neo_reference_id" : "3278321",
    "name" : "(2005 JF108)",
    "designation" : "2005 JF108",
    "nasa_jpl_url" : "http://ssd.jpl.nasa.gov/sbdb.cgi?sstr=3278321",
    "absolute_magnitude_h" : 18.1,
    "estimated_diameter" : {
      "kilometers" : {
        "estimated_diameter_min" : 0.6376097899,
        "estimated_diameter_max" : 1.4257388333
      },
      "meters" : {
        "estimated_diameter_min" : 637.6097898754,
        "estimated_diameter_max" : 1425.7388332807
      },
      "miles" : {
        "estimated_diameter_min" : 0.3961922327,
        "estimated_diameter_max" : 0.8859127646
      },
      "feet" : {
        "estimated_diameter_min" : 2091.8957030147,
        "estimated_diameter_max" : 4677.6209937807
      }
    },
    "is_potentially_hazardous_asteroid" : false,
    "close_approach_data" : [ ],
    "orbital_data" : {
      "orbit_id" : "7",
      "orbit_determination_date" : "2017-04-06 09:10:57",
      "first_observation_date" : "2005-05-13",
      "last_observation_date" : "2005-05-14",
      "data_arc_in_days" : 1,
      "observations_used" : 22,
      "orbit_uncertainty" : "9",
      "minimum_orbit_intersection" : ".377141",
      "jupiter_tisserand_invariant" : "3.188",
      "epoch_osculation" : "2453504.5",
      "eccentricity" : ".8046410474288358",
      "semi_major_axis" : "2.034967378336964",
      "inclination" : "31.76898257677361",
      "ascending_node_longitude" : "70.52189860827127",
      "orbital_period" : "1060.314265166581",
      "perihelion_distance" : ".3975490955483973",
      "perihelion_argument" : "23.7962928839303",
      "aphelion_distance" : "3.672385661125531",
      "perihelion_time" : "2453406.092022380053",
      "mean_anomaly" : "33.4116715270403",
      "mean_motion" : ".3395219811962466",
      "equinox" : "J2000",
      "orbit_class" : {
        "orbit_class_type" : "APO",
        "orbit_class_range" : "a (semi-major axis) > 1.0 AU; q (perihelion) < 1.017 AU",
        "orbit_class_description" : "Near-Earth asteroid orbits which cross the Earth’s orbit similar to that of 1862 Apollo"
      }
    },
    "is_sentry_object" : false
  }, {
    "links" : {
      "self" : "https://api.nasa.gov/neo/rest/v1/neo/3278396?api_key=jqAGvNAwUIBu4fl9FSOjdm3V4F7hIglRzI6pdX9d"
    },
    "neo_reference_id" : "3278396",
    "name" : "(2005 JT108)",
    "designation" : "2005 JT108",
    "nasa_jpl_url" : "http://ssd.jpl.nasa.gov/sbdb.cgi?sstr=3278396",
    "absolute_magnitude_h" : 19.5,
    "estimated_diameter" : {
      "kilometers" : {
        "estimated_diameter_min" : 0.3346223745,
        "estimated_diameter_max" : 0.7482383761
      },
      "meters" : {
        "estimated_diameter_min" : 334.6223744549,
        "estimated_diameter_max" : 748.2383760735
      },
      "miles" : {
        "estimated_diameter_min" : 0.2079246394,
        "estimated_diameter_max" : 0.464933628
      },
      "feet" : {
        "estimated_diameter_min" : 1097.8424710066,
        "estimated_diameter_max" : 2454.8503937571
      }
    },
    "is_potentially_hazardous_asteroid" : false,
    "close_approach_data" : [ {
      "close_approach_date" : "2005-04-21",
      "epoch_date_close_approach" : 1114066800000,
      "relative_velocity" : {
        "kilometers_per_second" : "20.5426443047",
        "kilometers_per_hour" : "73953.5194968534",
        "miles_per_hour" : "45951.841045142"
      },
      "miss_distance" : {
        "astronomical" : "0.2464071953",
        "lunar" : "95.8524017334",
        "kilometers" : "36861992",
        "miles" : "22904980"
      },
      "orbiting_body" : "Earth"
    } ],
    "orbital_data" : {
      "orbit_id" : "9",
      "orbit_determination_date" : "2017-04-06 09:10:57",
      "first_observation_date" : "2005-05-14",
      "last_observation_date" : "2005-06-03",
      "data_arc_in_days" : 20,
      "observations_used" : 23,
      "orbit_uncertainty" : "8",
      "minimum_orbit_intersection" : ".121565",
      "jupiter_tisserand_invariant" : "3.948",
      "epoch_osculation" : "2453508.5",
      "eccentricity" : ".5724492795323572",
      "semi_major_axis" : "1.725612754779668",
      "inclination" : "8.948470877774508",
      "ascending_node_longitude" : "288.8459626974814",
      "orbital_period" : "827.9677864668707",
      "perihelion_distance" : ".7377869765542009",
      "perihelion_argument" : "197.1919371372198",
      "aphelion_distance" : "2.713438533005136",
      "perihelion_time" : "2453434.264249740202",
      "mean_anomaly" : "32.2776689266722",
      "mean_motion" : ".4347995246725756",
      "equinox" : "J2000",
      "orbit_class" : {
        "orbit_class_type" : "APO",
        "orbit_class_range" : "a (semi-major axis) > 1.0 AU; q (perihelion) < 1.017 AU",
        "orbit_class_description" : "Near-Earth asteroid orbits which cross the Earth’s orbit similar to that of 1862 Apollo"
      }
    },
    "is_sentry_object" : false
  }, {
    "links" : {
      "self" : "https://api.nasa.gov/neo/rest/v1/neo/3279221?api_key=jqAGvNAwUIBu4fl9FSOjdm3V4F7hIglRzI6pdX9d"
    },
    "neo_reference_id" : "3279221",
    "name" : "(2005 KJ10)",
    "designation" : "2005 KJ10",
    "nasa_jpl_url" : "http://ssd.jpl.nasa.gov/sbdb.cgi?sstr=3279221",
    "absolute_magnitude_h" : 21.3,
    "estimated_diameter" : {
      "kilometers" : {
        "estimated_diameter_min" : 0.1460679643,
        "estimated_diameter_max" : 0.3266178974
      },
      "meters" : {
        "estimated_diameter_min" : 146.0679642714,
        "estimated_diameter_max" : 326.6178974458
      },
      "miles" : {
        "estimated_diameter_min" : 0.090762397,
        "estimated_diameter_max" : 0.2029508896
      },
      "feet" : {
        "estimated_diameter_min" : 479.2256199,
        "estimated_diameter_max" : 1071.581062656
      }
    },
    "is_potentially_hazardous_asteroid" : true,
    "close_approach_data" : [ {
      "close_approach_date" : "2005-06-04",
      "epoch_date_close_approach" : 1117868400000,
      "relative_velocity" : {
        "kilometers_per_second" : "14.4236453263",
        "kilometers_per_hour" : "51925.1231747758",
        "miles_per_hour" : "32264.25223046"
      },
      "miss_distance" : {
        "astronomical" : "0.0512249908",
        "lunar" : "19.9265213013",
        "kilometers" : "7663149.5",
        "miles" : "4761660.5"
      },
      "orbiting_body" : "Earth"
    } ],
    "orbital_data" : {
      "orbit_id" : "8",
      "orbit_determination_date" : "2017-04-06 09:10:55",
      "first_observation_date" : "2005-05-31",
      "last_observation_date" : "2005-06-01",
      "data_arc_in_days" : 1,
      "observations_used" : 29,
      "orbit_uncertainty" : "9",
      "minimum_orbit_intersection" : ".0294546",
      "jupiter_tisserand_invariant" : "3.683",
      "epoch_osculation" : "2453522.5",
      "eccentricity" : ".5878286960069902",
      "semi_major_axis" : "1.919483344557348",
      "inclination" : "8.284407094023237",
      "ascending_node_longitude" : "81.40372463497805",
      "orbital_period" : "971.3482207151712",
      "perihelion_distance" : ".7911559531190659",
      "perihelion_argument" : "233.7140882086191",
      "aphelion_distance" : "3.04781073599563",
      "perihelion_time" : "2453568.458785653934",
      "mean_anomaly" : "342.9668058451431",
      "mean_motion" : ".3706188906538008",
      "equinox" : "J2000",
      "orbit_class" : {
        "orbit_class_type" : "APO",
        "orbit_class_range" : "a (semi-major axis) > 1.0 AU; q (perihelion) < 1.017 AU",
        "orbit_class_description" : "Near-Earth asteroid orbits which cross the Earth’s orbit similar to that of 1862 Apollo"
      }
    },
    "is_sentry_object" : false
  } ]
}